{"type": "FeatureCollection", "features": [{"type": "Feature", "properties": {"norad_id": 36828, "name": "BEIDOU-2 IGSO-1 (C06)", "group": "beidou", "lat": -46.77541428331492, "lon": 34.50078817742756, "alt_km": 35600.22968245647, "timestamp": "2025-12-26T13:39:19.240832+00:00", "meta": {"OBJECT_NAME": "BEIDOU-2 IGSO-1 (C06)", "OBJECT_ID": "2010-036A", "EPOCH": "2025-12-25T21:06:51.904224", "MEAN_MOTION": 1.00272533, "ECCENTRICITY": 0.00515074, "INCLINATION": 54.2892, "RA_OF_ASC_NODE": 164.5291, "ARG_OF_PERICENTER": 215.7944, "MEAN_ANOMALY": 138.9488, "EPHEMERIS_TYPE": 0, "CLASSIFICATION_TYPE": "U", "NORAD_CAT_ID": 36828, "ELEMENT_SET_NO": 999, "REV_AT_EPOCH": 5635, "BSTAR": 0, "MEAN_MOTION_DOT": -5.2e-07, "MEAN_MOTION_DDOT": 0}, "tle": {"line1": "1 36828U 10036A   25359.87976741 -.00000052  00000+0  00000+0 0  9996", "line2": "2 36828  54.2892 164.5291 0051507 215.7944 138.9488  1.00272533 56350"}}, "geometry": {"type": "Point", "coordinates": [34.50078817742756, -46.77541428331492]}}, {"type": "Feature", "properties": {"norad_id": 37210, "name": "BEIDOU-2 G4 (C04)", "group": "beidou", "lat": 1.6402475028248276, "lon": 100.14542782715417, "alt_km": 35828.47569123356, "timestamp": "2025-12-26T13:39:19.240860+00:00", "meta": {"OBJECT_NAME": "BEIDOU-2 G4 (C04)", "OBJECT_ID": "2010-057A", "EPOCH": "2025-12-26T05:23:59.678592", "MEAN_MOTION": 1.00271369, "ECCENTRICITY": 0.001045, "INCLINATION": 3.2158, "RA_OF_ASC_NODE": 69.8869, "ARG_OF_PERICENTER": 194.0651, "MEAN_ANOMALY": 72.1025, "EPHEMERIS_TYPE": 0, "CLASSIFICATION_TYPE": "U", "NORAD_CAT_ID": 37210, "ELEMENT_SET_NO": 999, "REV_AT_EPOCH": 5555, "BSTAR": 0, "MEAN_MOTION_DOT": -9.1e-07, "MEAN_MOTION_DDOT": 0}, "tle": {"line1": "1 37210U 10057A   25360.22499628 -.00000091  00000+0  00000+0 0  9993", "line2": "2 37210   3.2158  69.8869 0010450 194.0651  72.1025  1.00271369 55552"}}, "geometry": {"type": "Point", "coordinates": [100.14542782715417, 1.6402475028248276]}}, {"type": "Feature", "properties": {"norad_id": 37256, "name": "BEIDOU-2 IGSO-2 (C07)", "group": "beidou", "lat": 32.44663912533757, "lon": 58.90884091949802, "alt_km": 35751.20152287767, "timestamp": "2025-12-26T13:39:19.240876+00:00", "meta": {"OBJECT_NAME": "BEIDOU-2 IGSO-2 (C07)", "OBJECT_ID": "2010-068A", "EPOCH": "2025-12-26T05:49:55.295904", "MEAN_MOTION": 1.00282085, "ECCENTRICITY": 0.00483281, "INCLINATION": 47.8612, "RA_OF_ASC_NODE": 273.9839, "ARG_OF_PERICENTER": 216.056, "MEAN_ANOMALY": 160.5314, "EPHEMERIS_TYPE": 0, "CLASSIFICATION_TYPE": "U", "NORAD_CAT_ID": 37256, "ELEMENT_SET_NO": 999, "REV_AT_EPOCH": 5506, "BSTAR": 0, "MEAN_MOTION_DOT": -2e-06, "MEAN_MOTION_DDOT": 0}, "tle": {"line1": "1 37256U 10068A   25360.24300111 -.00000200  00000+0  00000+0 0  9997", "line2": "2 37256  47.8612 273.9839 0048328 216.0560 160.5314  1.00282085 55061"}}, "geometry": {"type": "Point", "coordinates": [58.90884091949802, 32.44663912533757]}}, {"type": "Feature", "properties": {"norad_id": 37384, "name": "BEIDOU-2 IGSO-3 (C08)", "group": "beidou", "lat": 4.844743664128653, "lon": 44.37963266816749, "alt_km": 35935.871182910094, "timestamp": "2025-12-26T13:39:19.240890+00:00", "meta": {"OBJECT_NAME": "BEIDOU-2 IGSO-3 (C08)", "OBJECT_ID": "2011-013A", "EPOCH": "2025-12-24T13:36:08.179776", "MEAN_MOTION": 1.00268125, "ECCENTRICITY": 0.00352821, "INCLINATION": 62.1584, "RA_OF_ASC_NODE": 41.8043, "ARG_OF_PERICENTER": 187.8377, "MEAN_ANOMALY": 174.9924, "EPHEMERIS_TYPE": 0, "CLASSIFICATION_TYPE": "U", "NORAD_CAT_ID": 37384, "ELEMENT_SET_NO": 999, "REV_AT_EPOCH": 5391, "BSTAR": 0, "MEAN_MOTION_DOT": -1.63e-06, "MEAN_MOTION_DDOT": 0}, "tle": {"line1": "1 37384U 11013A   25358.56676134 -.00000163  00000+0  00000+0 0  9991", "line2": "2 37384  62.1584  41.8043 0035282 187.8377 174.9924  1.00268125 53913"}}, "geometry": {"type": "Point", "coordinates": [44.37963266816749, 4.844743664128653]}}, {"type": "Feature", "properties": {"norad_id": 37763, "name": "BEIDOU-2 IGSO-4 (C09)", "group": "beidou", "lat": -37.01455268435342, "lon": 19.68519072801635, "alt_km": 35160.63640757674, "timestamp": "2025-12-26T13:39:19.240904+00:00", "meta": {"OBJECT_NAME": "BEIDOU-2 IGSO-4 (C09)", "OBJECT_ID": "2011-038A", "EPOCH": "2025-12-21T10:06:26.864064", "MEAN_MOTION": 1.00280083, "ECCENTRICITY": 0.01491557, "INCLINATION": 54.5854, "RA_OF_ASC_NODE": 167.2693, "ARG_OF_PERICENTER": 230.0944, "MEAN_ANOMALY": 299.1265, "EPHEMERIS_TYPE": 0, "CLASSIFICATION_TYPE": "U", "NORAD_CAT_ID": 37763, "ELEMENT_SET_NO": 999, "REV_AT_EPOCH": 5286, "BSTAR": 0, "MEAN_MOTION_DOT": 5.9e-07, "MEAN_MOTION_DDOT": 0}, "tle": {"line1": "1 37763U 11038A   25355.42114426  .00000059  00000+0  00000+0 0  9995", "line2": "2 37763  54.5854 167.2693 0149155 230.0944 299.1265  1.00280083 52867"}}, "geometry": {"type": "Point", "coordinates": [19.68519072801635, -37.01455268435342]}}, {"type": "Feature", "properties": {"norad_id": 37948, "name": "BEIDOU-2 IGSO-5 (C10)", "group": "beidou", "lat": 40.596650328883506, "lon": 43.252979613030725, "alt_km": 35876.74510306765, "timestamp": "2025-12-26T13:39:19.240918+00:00", "meta": {"OBJECT_NAME": "BEIDOU-2 IGSO-5 (C10)", "OBJECT_ID": "2011-073A", "EPOCH": "2025-12-25T17:46:48.300384", "MEAN_MOTION": 1.00288091, "ECCENTRICITY": 0.01096686, "INCLINATION": 47.9959, "RA_OF_ASC_NODE": 273.6993, "ARG_OF_PERICENTER": 222.1113, "MEAN_ANOMALY": 319.0848, "EPHEMERIS_TYPE": 0, "CLASSIFICATION_TYPE": "U", "NORAD_CAT_ID": 37948, "ELEMENT_SET_NO": 999, "REV_AT_EPOCH": 5139, "BSTAR": 0, "MEAN_MOTION_DOT": -1.42e-06, "MEAN_MOTION_DDOT": 0}, "tle": {"line1": "1 37948U 11073A   25359.74083681 -.00000142  00000+0  00000+0 0  9990", "line2": "2 37948  47.9959 273.6993 0109668 222.1113 319.0848  1.00288091 51397"}}, "geometry": {"type": "Point", "coordinates": [43.252979613030725, 40.596650328883506]}}, {"type": "Feature", "properties": {"norad_id": 38091, "name": "BEIDOU-2 G5 (C05)", "group": "beidou", "lat": -2.9877381118235347, "lon": -0.9867138256632316, "alt_km": 35756.08475856037, "timestamp": "2025-12-26T13:39:19.240939+00:00", "meta": {"OBJECT_NAME": "BEIDOU-2 G5 (C05)", "OBJECT_ID": "2012-008A", "EPOCH": "2025-12-25T21:54:09.656928", "MEAN_MOTION": 1.00270052, "ECCENTRICITY": 0.001313, "INCLINATION": 3.1399, "RA_OF_ASC_NODE": 70.6602, "ARG_OF_PERICENTER": 232.1831, "MEAN_ANOMALY": 179.0905, "EPHEMERIS_TYPE": 0, "CLASSIFICATION_TYPE": "U", "NORAD_CAT_ID": 38091, "ELEMENT_SET_NO": 999, "REV_AT_EPOCH": 5063, "BSTAR": 0, "MEAN_MOTION_DOT": 7.8e-07, "MEAN_MOTION_DDOT": 0}, "tle": {"line1": "1 38091U 12008A   25359.91261177  .00000078  00000+0  00000+0 0  9993", "line2": "2 38091   3.1399  70.6602 0013130 232.1831 179.0905  1.00270052 50639"}}, "geometry": {"type": "Point", "coordinates": [-0.9867138256632316, -2.9877381118235347]}}, {"type": "Feature", "properties": {"norad_id": 38250, "name": "BEIDOU-2 M3 (C11)", "group": "beidou", "lat": -6.431680347693623, "lon": 135.05080889992107, "alt_km": 21526.479067713164, "timestamp": "2025-12-26T13:39:19.240952+00:00", "meta": {"OBJECT_NAME": "BEIDOU-2 M3 (C11)", "OBJECT_ID": "2012-018A", "EPOCH": "2025-12-24T03:22:03.617760", "MEAN_MOTION": 1.86230154, "ECCENTRICITY": 0.00241099, "INCLINATION": 55.9106, "RA_OF_ASC_NODE": 310.7747, "ARG_OF_PERICENTER": 275.3713, "MEAN_ANOMALY": 84.3565, "EPHEMERIS_TYPE": 0, "CLASSIFICATION_TYPE": "U", "NORAD_CAT_ID": 38250, "ELEMENT_SET_NO": 999, "REV_AT_EPOCH": 9268, "BSTAR": 0, "MEAN_MOTION_DOT": -5.3e-07, "MEAN_MOTION_DDOT": 0}, "tle": {"line1": "1 38250U 12018A   25358.14031965 -.00000053  00000+0  00000+0 0  9999", "line2": "2 38250  55.9106 310.7747 0024109 275.3713  84.3565  1.86230154 92685"}}, "geometry": {"type": "Point", "coordinates": [135.05080889992107, -6.431680347693623]}}, {"type": "Feature", "properties": {"norad_id": 38251, "name": "BEIDOU-2 M4 (C12)", "group": "beidou", "lat": -41.71828588256906, "lon": 167.16730222258977, "alt_km": 21503.805777148813, "timestamp": "2025-12-26T13:39:19.240964+00:00", "meta": {"OBJECT_NAME": "BEIDOU-2 M4 (C12)", "OBJECT_ID": "2012-018B", "EPOCH": "2025-12-26T05:17:08.054304", "MEAN_MOTION": 1.86229703, "ECCENTRICITY": 0.00151682, "INCLINATION": 55.8098, "RA_OF_ASC_NODE": 309.9329, "ARG_OF_PERICENTER": 279.718, "MEAN_ANOMALY": 80.1169, "EPHEMERIS_TYPE": 0, "CLASSIFICATION_TYPE": "U", "NORAD_CAT_ID": 38251, "ELEMENT_SET_NO": 999, "REV_AT_EPOCH": 9272, "BSTAR": 0, "MEAN_MOTION_DOT": -5.5e-07, "MEAN_MOTION_DDOT": 0}, "tle": {"line1": "1 38251U 12018B   25360.22023211 -.00000055  00000+0  00000+0 0  9999", "line2": "2 38251  55.8098 309.9329 0015168 279.7180  80.1169  1.86229703 92729"}}, "geometry": {"type": "Point", "coordinates": [167.16730222258977, -41.71828588256906]}}, {"type": "Feature", "properties": {"norad_id": 38775, "name": "BEIDOU-2 M6 (C14)", "group": "beidou", "lat": 50.460197738331004, "lon": 122.20620988657947, "alt_km": 21519.040512059193, "timestamp": "2025-12-26T13:39:19.240999+00:00", "meta": {"OBJECT_NAME": "BEIDOU-2 M6 (C14)", "OBJECT_ID": "2012-050B", "EPOCH": "2025-12-24T07:41:05.368128", "MEAN_MOTION": 1.86230801, "ECCENTRICITY": 0.00114872, "INCLINATION": 56.388, "RA_OF_ASC_NODE": 68.6832, "ARG_OF_PERICENTER": 343.1884, "MEAN_ANOMALY": 16.8281, "EPHEMERIS_TYPE": 0, "CLASSIFICATION_TYPE": "U", "NORAD_CAT_ID": 38775, "ELEMENT_SET_NO": 999, "REV_AT_EPOCH": 9005, "BSTAR": 0, "MEAN_MOTION_DOT": -2.4e-07, "MEAN_MOTION_DDOT": 0}, "tle": {"line1": "1 38775U 12050B   25358.32020102 -.00000024  00000+0  00000+0 0  9996", "line2": "2 38775  56.3880  68.6832 0011487 343.1884  16.8281  1.86230801 90056"}}, "geometry": {"type": "Point", "coordinates": [122.20620988657947, 50.460197738331004]}}]}